{
    "links": {
        "self": "http://www.neowsapp.com/rest/v1/neo/3545908?api_key=iIulBulltgU6a56xZRHN4H3l9WmuAYTsLGpBGhQ2"
    },
    "id": "3545908",
    "neo_reference_id": "3545908",
    "name": "(2010 RQ64)",
    "designation": "2010 RQ64",
    "nasa_jpl_url": "http://ssd.jpl.nasa.gov/sbdb.cgi?sstr=3545908",
    "absolute_magnitude_h": 26.2,
    "estimated_diameter": {
        "kilometers": {
            "estimated_diameter_min": 0.0152951935,
            "estimated_diameter_max": 0.0342010925
        },
        "meters": {
            "estimated_diameter_min": 15.2951935344,
            "estimated_diameter_max": 34.201092472
        },
        "miles": {
            "estimated_diameter_min": 0.0095039897,
            "estimated_diameter_max": 0.021251567
        },
        "feet": {
            "estimated_diameter_min": 50.1810827555,
            "estimated_diameter_max": 112.2083122258
        }
    },
    "is_potentially_hazardous_asteroid": false,
    "close_approach_data": [
        {
            "close_approach_date": "2010-09-07",
            "close_approach_date_full": "2010-Sep-07 04:48",
            "epoch_date_close_approach": 1283834880000,
            "relative_velocity": {
                "kilometers_per_second": "7.1007976316",
                "kilometers_per_hour": "25562.8714736",
                "miles_per_hour": "15883.7742220266"
            },
            "miss_distance": {
                "astronomical": "0.0238585953",
                "lunar": "9.2809935717",
                "kilometers": "3569195.038072011",
                "miles": "2217794.9561393118"
            },
            "orbiting_body": "Earth"
        },
        {
            "close_approach_date": "2013-06-28",
            "close_approach_date_full": "2013-Jun-28 14:07",
            "epoch_date_close_approach": 1372428420000,
            "relative_velocity": {
                "kilometers_per_second": "18.1215629093",
                "kilometers_per_hour": "65237.6264733846",
                "miles_per_hour": "40536.1240717539"
            },
            "miss_distance": {
                "astronomical": "0.3728198011",
                "lunar": "145.0269026279",
                "kilometers": "55773048.138383657",
                "miles": "34655765.1040101866"
            },
            "orbiting_body": "Earth"
        }
    ],
    "orbital_data": {
        "orbit_id": "10",
        "orbit_determination_date": "2017-04-06 08:56:45",
        "first_observation_date": "2010-09-11",
        "last_observation_date": "2010-10-01",
        "data_arc_in_days": 20,
        "observations_used": 44,
        "orbit_uncertainty": "8",
        "minimum_orbit_intersection": ".0117868",
        "jupiter_tisserand_invariant": "3.630",
        "epoch_osculation": "2455453.5",
        "eccentricity": ".50061355450218",
        "semi_major_axis": "2.044875612739851",
        "inclination": ".7669201231433733",
        "ascending_node_longitude": "357.9382207353087",
        "orbital_period": "1068.067672106927",
        "perihelion_distance": "1.021183163731331",
        "perihelion_argument": "333.6757225557912",
        "aphelion_distance": "3.068568061748372",
        "perihelion_time": "2455436.306444328526",
        "mean_anomaly": "5.795213359019234",
        "mean_motion": ".3370572945905617",
        "equinox": "J2000",
        "orbit_class": {
            "orbit_class_type": "AMO",
            "orbit_class_description": "Near-Earth asteroid orbits similar to that of 1221 Amor",
            "orbit_class_range": "1.017 AU < q (perihelion) < 1.3 AU"
        }
    },
    "is_sentry_object": false
}